GLOBALSTAR M001         
1 25162U 98008A   25108.56191667 -.00000055  00000+0  31608-3 0  9999
2 25162  52.0008 146.7689 0001700 129.4542  28.9444 12.38213102236431
GLOBALSTAR M004         
1 25163U 98008B   25108.50554662 -.00000060  00000+0  24471-3 0  9998
2 25163  51.9997 236.2251 0003660 151.1730 286.5587 12.63393824254242
GLOBALSTAR M002         
1 25164U 98008C   25108.09724089 -.00000043  00000+0  65581-3 0  9993
2 25164  52.0048  30.8667 0001899  43.6175 316.4795 11.61509282177153
GLOBALSTAR M003         
1 25165U 98008D   25107.92912392 -.00000068  00000+0  22701-3 0  9995
2 25165  52.0026 335.4117 0008110 167.0055 293.8758 12.12076573225919
GLOBALSTAR M006         
1 25307U 98023B   25107.89258198 -.00000032  00000+0  89050-3 0  9994
2 25307  51.9986   6.0937 0003502   6.5857  73.8546 11.58174482209840
GLOBALSTAR M015         
1 25308U 98023C   25108.28706303 -.00000079  00000+0 -12659-3 0  9998
2 25308  51.9795 100.8347 0012603 329.4107 133.7853 11.48858609187564
GLOBALSTAR M008         
1 25309U 98023D   25108.08914463 -.00000075  00000+0  16904-3 0  9997
2 25309  52.0000  12.2935 0003235  53.7804  85.7563 12.36066598230724
